COMMENT,ORIGINATOR,NORAD_CAT_ID,OBJECT_NAME,OBJECT_TYPE,CLASSIFICATION_TYPE,INTLDES,EPOCH,EPOCH_MICROSECONDS,MEAN_MOTION,ECCENTRICITY,INCLINATION,RA_OF_ASC_NODE,ARG_OF_PERICENTER,MEAN_ANOMALY,EPHEMERIS_TYPE,ELEMENT_SET_NO,REV_AT_EPOCH,BSTAR,MEAN_MOTION_DOT,MEAN_MOTION_DDOT,FILE,TLE_LINE0,TLE_LINE1,TLE_LINE2,OBJECT_ID,OBJECT_NUMBER,SEMIMAJOR_AXIS,PERIOD,APOGEE,PERIGEE
GENERATED VIA SPACETRACK.ORG API,18 SPCS,41616,FLOCK 2P 5,PAYLOAD,U,16040T,9/19/2018 4:29,926976,15.24658742,0.0008585,97.4095,326.0557,270.5528,89.4726,0,999,12454,4.72E-05,1.09E-05,0,2335257,0 FLOCK 2P 5,1 41616U 16040T   18262.18737184  .00001094  00000-0  47173-4 0  9997,2 41616  97.4095 326.0557 0008585 270.5528  89.4726 15.24658742124543,2016-040T,41616,6869.947,94.447,497.71,485.914
GENERATED VIA SPACETRACK.ORG API,18 SPCS,41616,FLOCK 2P 5,PAYLOAD,U,16040T,9/19/2018 9:13,332704,15.24660119,0.0008583,97.4095,326.2504,269.7224,90.303,0,999,12457,5.31E-05,1.24E-05,0,2335504,0 FLOCK 2P 5,1 41616U 16040T   18262.38426311 +.00001241 +00000-0 +53121-4 0  9990,2 41616 097.4095 326.2504 0008583 269.7224 090.3030 15.24660119124571,2016-040T,41616,6869.943,94.447,497.704,485.911
GENERATED VIA SPACETRACK.ORG API,18 SPCS,41616,FLOCK 2P 5,PAYLOAD,U,16040T,9/19/2018 20:14,630592,15.24661063,0.0008584,97.4095,326.7048,267.7787,92.2467,0,999,12464,5.03E-05,1.17E-05,0,2335767,0 FLOCK 2P 5,1 41616U 16040T   18262.84367628 +.00001171 +00000-0 +50294-4 0  9996,2 41616 097.4095 326.7048 0008584 267.7787 092.2467 15.24661063124644,2016-040T,41616,6869.94,94.447,497.702,485.908
GENERATED VIA SPACETRACK.ORG API,18 SPCS,41616,FLOCK 2P 5,PAYLOAD,U,16040T,9/20/2018 5:41,389344,15.24662719,0.0008607,97.4094,327.0943,266.194,93.8313,0,999,12470,5.28E-05,1.23E-05,0,2335648,0 FLOCK 2P 5,1 41616U 16040T   18263.23745821  .00001233  00000-0  52792-4 0  9999,2 41616  97.4094 327.0943 0008607 266.1940  93.8313 15.24662719124704,2016-040T,41616,6869.935,94.447,497.713,485.887
GENERATED VIA SPACETRACK.ORG API,18 SPCS,41616,FLOCK 2P 5,PAYLOAD,U,16040T,9/20/2018 18:18,95904,15.24663951,0.000861,97.4094,327.6137,263.9609,96.0648,0,999,12478,5.16E-05,1.20E-05,0,2335768,0 FLOCK 2P 5,1 41616U 16040T   18263.76250111 +.00001203 +00000-0 +51568-4 0  9997,2 41616 097.4094 327.6137 0008610 263.9609 096.0648 15.24663951124789,2016-040T,41616,6869.931,94.447,497.711,485.881
GENERATED VIA SPACETRACK.ORG API,18 SPCS,41616,FLOCK 2P 5,PAYLOAD,U,16040T,9/21/2018 19:30,478784,15.24665729,0.0008621,97.4093,328.6523,259.5151,100.5115,0,999,12494,4.76E-05,1.11E-05,0,2335770,0 FLOCK 2P 5,1 41616U 16040T   18264.81258656 +.00001105 +00000-0 +47611-4 0  9991,2 41616 097.4093 328.6523 0008621 259.5151 100.5115 15.24665729124946,2016-040T,41616,6869.926,94.446,497.713,485.868
GENERATED VIA SPACETRACK.ORG API,18 SPCS,41616,FLOCK 2P 5,PAYLOAD,U,16040T,9/22/2018 14:24,819168,15.24667945,0.0008636,97.4092,329.4313,256.1174,103.9103,0,999,12506,4.84E-05,1.12E-05,0,2335772,0 FLOCK 2P 5,1 41616U 16040T   18265.60014837 +.00001124 +00000-0 +48359-4 0  9991,2 41616 097.4092 329.4313 0008636 256.1174 103.9103 15.24667945125065,2016-040T,41616,6869.919,94.446,497.717,485.851
GENERATED VIA SPACETRACK.ORG API,18 SPCS,41616,FLOCK 2P 5,PAYLOAD,U,16040T,9/22/2018 17:33,695264,15.24668481,0.000864,97.4091,329.561,255.5698,104.4581,0,999,12508,4.96E-05,1.16E-05,0,2335773,0 FLOCK 2P 5,1 41616U 16040T   18265.73140851 +.00001155 +00000-0 +49631-4 0  9999,2 41616 097.4091 329.5610 0008640 255.5698 104.4581 15.24668481125088,2016-040T,41616,6869.918,94.446,497.718,485.847
GENERATED VIA SPACETRACK.ORG API,18 SPCS,41616,FLOCK 2P 5,PAYLOAD,U,16040T,9/23/2018 10:52,321984,15.24675375,0.0008678,97.409,330.2751,252.7,107.3288,0,999,12519,8.22E-05,1.96E-05,0,2335774,0 FLOCK 2P 5,1 41616U 16040T   18266.45333706 +.00001962 +00000-0 +82244-4 0  9995,2 41616 097.4090 330.2751 0008678 252.7000 107.3288 15.24675375125197,2016-040T,41616,6869.897,94.446,497.724,485.8
GENERATED VIA SPACETRACK.ORG API,18 SPCS,41616,FLOCK 2P 5,PAYLOAD,U,16040T,9/23/2018 21:54,317472,15.24676451,0.0008707,97.4089,330.7295,250.823,109.2065,0,999,12526,8.00E-05,1.91E-05,0,2335775,0 FLOCK 2P 5,1 41616U 16040T   18266.91274673 +.00001906 +00000-0 +79971-4 0  9994,2 41616 097.4089 330.7295 0008707 250.8230 109.2065 15.24676451125268,2016-040T,41616,6869.894,94.446,497.74,485.777
GENERATED VIA SPACETRACK.ORG API,18 SPCS,41616,FLOCK 2P 5,PAYLOAD,U,16040T,9/24/2018 10:30,735456,15.2467661,0.0008736,97.4089,331.2488,248.6359,111.3947,0,999,12534,6.98E-05,1.66E-05,0,2335776,0 FLOCK 2P 5,1 41616U 16040T   18267.43778629 +.00001655 +00000-0 +69833-4 0  9999,2 41616 097.4089 331.2488 0008736 248.6359 111.3947 15.24676610125346,2016-040T,41616,6869.893,94.446,497.76,485.757
GENERATED VIA SPACETRACK.ORG API,18 SPCS,41616,FLOCK 2P 5,PAYLOAD,U,16040T,9/24/2018 21:31,702432,15.24677287,0.000877,97.4088,331.7032,246.5889,113.4427,0,999,12541,6.56E-05,1.55E-05,0,2335777,0 FLOCK 2P 5,1 41616U 16040T   18267.89719563 +.00001550 +00000-0 +65576-4 0  9995,2 41616 097.4088 331.7032 0008770 246.5889 113.4427 15.24677287125413,2016-040T,41616,6869.891,94.446,497.781,485.731
GENERATED VIA SPACETRACK.ORG API,18 SPCS,41616,FLOCK 2P 5,PAYLOAD,U,16040T,9/25/2018 22:44,321536,15.24679268,0.000883,97.4086,332.7418,242.3926,117.6415,0,999,12557,5.89E-05,1.38E-05,0,2335778,0 FLOCK 2P 5,1 41616U 16040T   18268.94727224 +.00001384 +00000-0 +58852-4 0  9999,2 41616 097.4086 332.7418 0008830 242.3926 117.6415 15.24679268125574,2016-040T,41616,6869.885,94.446,497.816,485.684
GENERATED VIA SPACETRACK.ORG API,18 SPCS,41616,FLOCK 2P 5,PAYLOAD,U,16040T,9/26/2018 3:27,525088,15.24679979,0.0008845,97.4086,332.9365,241.5812,118.4535,0,999,12560,5.95E-05,1.40E-05,0,2335779,0 FLOCK 2P 5,1 41616U 16040T   18269.14416117 +.00001400 +00000-0 +59515-4 0  9994,2 41616 097.4086 332.9365 0008845 241.5812 118.4535 15.24679979125603,2016-040T,41616,6869.883,94.446,497.824,485.672
GENERATED VIA SPACETRACK.ORG API,18 SPCS,41616,FLOCK 2P 5,PAYLOAD,U,16040T,9/27/2018 17:15,875296,15.24685591,0.0008945,97.4083,334.4943,235.137,124.9027,0,999,12584,6.21E-05,1.46E-05,0,2336903,0 FLOCK 2P 5,1 41616U 16040T   18270.71926939  .00001464  00000-0  62108-4 0  9999,2 41616  97.4083 334.4943 0008945 235.1370 124.9027 15.24685591125849,2016-040T,41616,6869.866,94.445,497.876,485.586
GENERATED VIA SPACETRACK.ORG API,18 SPCS,41616,FLOCK 2P 5,PAYLOAD,U,16040T,9/27/2018 21:59,27872,15.24685705,0.0008966,97.4082,334.689,234.2986,125.7417,0,999,12587,5.82E-05,1.37E-05,0,2336951,0 FLOCK 2P 5,1 41616U 16040T   18270.91615773 +.00001368 +00000-0 +58197-4 0  9998,2 41616 097.4082 334.6890 0008966 234.2986 125.7417 15.24685705125879,2016-040T,41616,6869.866,94.445,497.89,485.571
GENERATED VIA SPACETRACK.ORG API,18 SPCS,41616,FLOCK 2P 5,PAYLOAD,U,16040T,9/28/2018 18:27,936256,15.24687954,0.0009022,97.4081,335.5328,230.9347,129.1088,0,999,12600,5.51E-05,1.29E-05,0,2337401,0 FLOCK 2P 5,1 41616U 16040T   18271.76933954  .00001291  00000-0  55105-4 0  9997,2 41616  97.4081 335.5328 0009022 230.9347 129.1088 15.24687954126008,2016-040T,41616,6869.859,94.445,497.922,485.526
GENERATED VIA SPACETRACK.ORG API,18 SPCS,41616,FLOCK 2P 5,PAYLOAD,U,16040T,9/28/2018 21:36,710400,15.2468777,0.0009033,97.408,335.6626,230.3979,129.6462,0,999,12602,5.16E-05,1.21E-05,0,2337424,0 FLOCK 2P 5,1 41616U 16040T   18271.90059850 +.00001206 +00000-0 +51649-4 0  9992,2 41616 097.4080 335.6626 0009033 230.3979 129.6462 15.24687770126025,2016-040T,41616,6869.86,94.445,497.93,485.519
GENERATED VIA SPACETRACK.ORG API,18 SPCS,41616,FLOCK 2P 5,PAYLOAD,U,16040T,9/29/2018 19:39,768256,15.24691845,0.0009091,97.4079,336.5712,226.7045,133.3435,0,999,12616,5.96E-05,1.40E-05,0,2337870,0 FLOCK 2P 5,1 41616U 16040T   18272.81940704  .00001403  00000-0  59615-4 0  9990,2 41616  97.4079 336.5712 0009091 226.7045 133.3435 15.24691845126161,2016-040T,41616,6869.847,94.445,497.958,485.467
GENERATED VIA SPACETRACK.ORG API,18 SPCS,41616,FLOCK 2P 5,PAYLOAD,U,16040T,9/29/2018 21:14,116448,15.24692228,0.0009098,97.4079,336.6362,226.4504,133.5979,0,999,12617,6.08E-05,1.43E-05,0,2337905,0 FLOCK 2P 5,1 41616U 16040T   18272.88503607 +.00001432 +00000-0 +60770-4 0  9990,2 41616 097.4079 336.6362 0009098 226.4504 133.5979 15.24692228126179,2016-040T,41616,6869.846,94.445,497.961,485.461
GENERATED VIA SPACETRACK.ORG API,18 SPCS,41616,FLOCK 2P 5,PAYLOAD,U,16040T,9/30/2018 20:52,450784,15.24695176,0.0009183,97.4077,337.6097,222.4665,137.5863,0,999,12632,6.11E-05,1.44E-05,0,2338374,0 FLOCK 2P 5,1 41616U 16040T   18273.86947281 +.00001441 +00000-0 +61142-4 0  9993,2 41616 097.4077 337.6097 0009183 222.4665 137.5863 15.24695176126320,2016-040T,41616,6869.837,94.445,498.011,485.394
GENERATED VIA SPACETRACK.ORG API,18 SPCS,41616,FLOCK 2P 5,PAYLOAD,U,16040T,10/1/2018 3:10,844416,15.24695911,0.0009214,97.4076,337.8693,221.4325,138.6215,0,999,12636,6.07E-05,1.43E-05,0,2338527,0 FLOCK 2P 5,1 41616U 16040T   18274.13198894  .00001431  00000-0  60735-4 0  9998,2 41616  97.4076 337.8693 0009214 221.4325 138.6215 15.24695911126364,2016-040T,41616,6869.835,94.445,498.03,485.37
GENERATED VIA SPACETRACK.ORG API,18 SPCS,41616,FLOCK 2P 5,PAYLOAD,U,16040T,10/1/2018 18:55,315968,15.24697456,0.0009265,97.4076,338.5184,218.8848,141.1724,0,999,12646,5.85E-05,1.38E-05,0,2339239,0 FLOCK 2P 5,1 41616U 16040T   18274.78827912 +.00001375 +00000-0 +58454-4 0  9991,2 41616 097.4076 338.5184 0009265 218.8848 141.1724 15.24697456126464,2016-040T,41616,6869.831,94.444,498.06,485.331
GENERATED VIA SPACETRACK.ORG API,18 SPCS,41616,FLOCK 2P 5,PAYLOAD,U,16040T,10/2/2018 2:47,972256,15.24698791,0.0009297,97.4075,338.8429,217.6099,142.449,0,999,12651,6.01E-05,1.42E-05,0,2339405,0 FLOCK 2P 5,1 41616U 16040T   18275.11642329 +.00001415 +00000-0 +60068-4 0  9995,2 41616 097.4075 338.8429 0009297 217.6099 142.4490 15.24698791126511,2016-040T,41616,6869.827,94.444,498.078,485.305
